OBJECT_NAME,OBJECT_ID,EPOCH,MEAN_MOTION,ECCENTRICITY,INCLINATION,RA_OF_ASC_NODE,ARG_OF_PERICENTER,MEAN_ANOMALY,EPHEMERIS_TYPE,CLASSIFICATION_TYPE,NORAD_CAT_ID,ELEMENT_SET_NO,REV_AT_EPOCH,BSTAR,MEAN_MOTION_DOT,MEAN_MOTION_DDOT
OPS 6582 (TRANSIT 5B-5),1964-083D,2026-05-18T22:00:47.541888,13.57009810,.00416348,90.0786,202.8031,6.4967,166.5728,0,U,965,999,3964,.65696761E-4,.56E-6,0
LES-1,1965-008C,2026-05-18T14:54:20.904192,9.88355241,.00154281,32.1396,114.7433,164.4519,195.6453,0,U,1002,999,21326,-.29349326E-2,-.14E-6,0
SOLRAD 7B,1965-016D,2026-05-18T17:05:58.583040,13.94971961,.00204048,70.0789,298.9266,166.6197,193.5454,0,U,1291,999,11259,.2664853E-4,-.16E-6,0
SECOR 4 (EGRS 4),1965-027B,2026-05-18T09:39:27.562176,12.92667195,.00294018,90.2524,14.9027,278.8523,256.3021,0,U,1315,999,88307,-.80161878E-4,-.15E-6,0
TIROS 10,1965-051A,2026-05-18T14:45:17.474112,14.41617588,.00556227,98.5000,258.0812,166.6307,193.6371,0,U,1430,999,19165,.41605187E-4,.93E-6,0
ALOUETTE 2,1965-098A,2026-05-18T10:26:36.169440,12.28322050,.13301226,79.7995,301.9799,292.8957,53.7221,0,U,1804,999,67562,.49995655E-4,.146E-5,0
OV3-3,1966-070A,2026-05-18T21:34:59.748960,13.44614009,.10140959,81.3275,356.8439,233.6359,116.7030,0,U,2389,999,59503,.25075409E-3,.5531E-4,0
SECOR 7 (EGRS 7),1966-077B,2026-05-16T19:07:13.805184,8.59615434,.00117709,90.3326,277.0717,89.0586,271.1614,0,U,2411,999,87468,-.14505782E-1,-.28E-6,0
ERS 15,1966-077C,2026-05-16T18:38:24.651744,8.59079306,.00074223,90.3326,276.8641,98.4005,261.7688,0,U,2412,999,38776,0,.2E-7,0
ISIS 1,1969-009A,2026-05-18T10:54:47.566944,11.30428690,.17060936,88.4420,147.6685,308.3300,37.6014,0,U,3669,999,35641,.36966332E-4,.5E-6,0
SECOR 13 (EGRS 13),1969-037B,2026-05-18T21:23:51.157248,13.42975921,.00390472,99.6527,11.6450,324.3740,100.7603,0,U,3891,999,79782,.41589859E-4,-.19E-6,0
ATS 5,1969-069A,2026-05-18T15:23:15.080064,0.99490269,.00053545,0.2334,169.4616,112.2667,49.5845,0,U,4068,999,4603,0,.11E-5,0
OPS 7613 (P/L 4),1969-082E,2026-05-18T19:30:13.989888,13.95991385,.00202017,70.0131,166.6423,176.1634,356.8487,0,U,4237,999,88220,.51812712E-4,.18E-6,0
OPS 7613 (P/L 1),1969-082B,2026-05-18T22:13:46.526016,13.99188693,.00170817,70.0110,27.8748,105.8078,254.4915,0,U,4256,999,88637,.8103571E-4,.64E-6,0
SHINSEI (MS-F2),1971-080A,2026-05-18T13:06:32.602752,12.74250177,.0639615,32.0552,231.3861,203.1252,153.9293,0,U,5485,999,54547,.93829608E-4,.78E-6,0
PROSPERO (BLACK ARROW),1971-093A,2026-05-18T17:51:16.403904,14.01560228,.05005696,82.0371,316.6812,311.6663,44.2653,0,U,5580,999,74440,.13033197E-3,.617E-5,0
OPS 7898 (P/L 2),1971-110C,2026-05-18T11:38:08.293344,13.74756158,.00093939,69.9902,64.2163,221.0305,139.0084,0,U,5680,999,34413,.34562747E-4,-.17E-6,0
NOAA 2 (ITOS-D),1972-082A,2026-05-18T20:25:03.423648,12.53214024,.00038445,102.0090,157.0996,221.1182,312.4889,0,U,6235,999,45127,-.10933382E-4,-.48E-6,0
OSCAR 7 (AO-7),1974-089B,2026-05-18T19:18:36.233856,12.53697609,.00122298,101.9912,151.7440,185.4083,358.6943,0,U,7530,999,35683,-.20381123E-4,-.5E-6,0
TIROS N,1978-096A,2026-05-18T19:30:19.556640,14.19365722,.00097171,98.4548,161.1947,334.2779,25.7914,0,U,11060,999,67458,.61280194E-4,.87E-6,0
PHASE 3B (AO-10),1983-058B,2026-05-16T19:21:05.021568,2.05872419,.60218023,25.8953,224.7799,107.0257,324.0438,0,U,14129,999,29484,0,-.64E-6,0
HILAT,1983-063A,2026-05-18T21:52:41.228256,14.38691737,.00396931,82.0249,188.2420,21.6109,151.6080,0,U,14154,999,24337,.65199934E-4,.218E-5,0
UOSAT 2 (UO-11),1984-021B,2026-05-18T11:40:18.643296,14.90705377,.00060472,97.8041,104.3984,286.2566,73.7986,0,U,14781,999,25270,.62845217E-4,.561E-5,0
NOAA 9,1984-123A,2026-05-18T20:27:36.362016,14.17059559,.00157017,99.1008,164.8083,74.5295,98.3940,0,U,15427,999,13926,.53302517E-4,.61E-6,0
GEOSAT,1985-021A,2026-05-18T21:39:23.277600,14.39951582,.00012966,108.0462,20.5058,263.8672,96.2323,0,U,15595,999,15855,.51546402E-4,.26E-6,0
EUTELSAT 1-F4 (ECS 4),1987-078B,2026-05-18T12:01:34.811040,0.98689408,.00116077,13.8499,342.3354,40.5681,154.1946,0,U,18351,999,12646,0,-.187E-5,0
PACSAT (AO-16),1990-005D,2026-05-18T08:50:52.002816,14.33926370,.00098361,98.8544,173.3456,324.3309,46.6119,0,U,20439,999,89766,.42860586E-4,.73E-6,0
LUSAT (LO-19),1990-005G,2026-05-18T21:05:47.416128,14.34113211,.00105103,98.8866,159.8750,294.6288,65.3801,0,U,20442,999,89819,.40117357E-4,.65E-6,0
IRS-1B,1991-061A,2026-05-18T19:04:50.001024,13.97871832,.00251454,99.4123,146.0092,83.3024,89.3612,0,U,21688,999,66438,-.12425393E-3,-.223E-5,0
COSMOS 2197,1992-042A,2026-05-18T12:59:15.835200,12.64251564,.00120473,82.5944,247.8739,346.6738,24.6708,0,U,22034,999,56154,.11412243E-3,.32E-6,0
PEGASUS R/B,1993-009C,2026-05-18T16:33:01.759680,14.57925732,.00440227,24.9779,275.6400,148.5176,211.7980,0,U,22491,999,76532,.96802489E-4,.663E-5,0
EYESAT A (AO-27),1993-061C,2026-05-18T21:52:28.841952,14.30933491,.00084123,98.6890,206.3336,178.5315,181.5894,0,U,22825,999,70281,.40840748E-4,.63E-6,0
ITAMSAT (IO-26),1993-061D,2026-05-18T21:35:23.499456,14.31359480,.00092598,98.6838,206.2362,162.7043,197.4457,0,U,22826,999,70312,.38632017E-4,.58E-6,0
RADIO ROSTO (RS15),1994-085A,2026-05-18T20:21:57.703392,11.27583616,.01551305,64.8187,350.6667,9.2590,351.1138,0,U,23439,999,29259,-.10901602E-3,-.46E-6,0
JAS-2 (FO-29),1996-046B,2026-05-18T07:02:01.599648,13.53272656,.03499809,98.5270,351.2555,173.8581,186.7023,0,U,24278,999,46912,.42085352E-4,.7E-7,0
FORTE,1997-047A,2026-05-18T19:32:19.404672,14.27931861,.00239067,69.9529,80.3652,313.2548,46.6579,0,U,24920,999,49449,.63409561E-4,.1E-5,0
NOAA 15,1998-030A,2026-05-18T21:06:50.740416,14.27136723,.00114613,98.5082,160.3025,75.6151,284.6301,0,U,25338,999,45711,.51514105E-4,.83E-6,0
TECHSAT 1B (GO-32),1998-043D,2026-05-18T11:48:30.948768,14.24422024,.00007061,99.0065,130.5034,0.3468,359.7710,0,U,25397,999,44710,.26185017E-4,.14E-6,0
ISS (ZARYA),1998-067A,2026-05-18T20:13:53.038272,15.49265459,.0007538,51.6325,85.3646,73.2548,286.9268,0,U,25544,999,56720,.1198707E-3,.6222E-4,0
ORSTED,1999-008B,2026-05-18T11:24:11.000448,14.51781028,.01301266,96.4838,52.7366,282.1144,76.5503,0,U,25635,999,43765,.74762958E-4,.301E-5,0
LANDSAT 7,1999-020A,2026-05-18T22:02:06.463968,14.63889166,.00015144,97.8584,143.8961,103.1017,304.2499,0,U,25682,999,44156,.52659334E-4,.231E-5,0
ORBCOMM FM36,1999-065E,2026-05-18T17:52:59.104128,14.39139252,.00040601,45.0394,299.3509,183.1325,176.9499,0,U,25984,999,38274,.20738124E-3,.505E-5,0
DMSP 5D-3 F15 (USA 147),1999-067A,2026-05-18T22:20:43.138176,14.17551732,.00111527,98.9982,177.1175,86.7055,330.9851,0,U,25991,999,36650,.75393306E-4,.107E-5,0
OPAL (OO-38),2000-004C,2026-05-18T07:51:01.839168,14.37952342,.00364142,100.1908,69.6447,118.8360,241.6485,0,U,26063,999,37899,.42416674E-4,.7E-6,0
IMAGE,2000-017A,2026-05-16T20:25:18.819264,1.68665369,.74554789,94.2039,314.9580,291.3690,8.2558,0,U,26113,999,16097,.11882681E-1,.32E-6,0
CLUSTER II-FM7 (SAMBA),2000-041A,2026-05-19T03:11:14.910144,0.44883482,.90185594,149.8437,45.8867,262.6588,0.3747,0,U,26410,999,2018,0,.6663E-4,0
CLUSTER II-FM8 (TANGO),2000-045B,2026-05-19T03:31:59.188512,0.44397908,.90257633,150.1023,46.8868,263.5226,0.1578,0,U,26464,999,2017,0,.6855E-4,0
MEGSAT-1,2000-057B,2026-05-18T18:45:45.700416,15.05305188,.00412948,64.5471,163.3287,287.1972,72.4627,0,U,26546,999,39323,.11404348E-3,.1482E-4,0
PHASE 3D (AO-40),2000-072B,2026-05-18T04:42:32.628672,1.25588298,.79317082,9.4709,355.6183,169.0731,234.5599,0,U,26609,999,11713,0,-.124E-5,0
ODIN,2001-007A,2026-05-18T08:23:14.036064,15.67042148,.00033105,97.3910,177.5767,182.6462,177.4782,0,U,26702,999,38471,.73648378E-3,.7884E-3,0
OMNI-M1,2001-026A,2026-05-16T09:05:15.687456,3.92401279,.00152975,44.8421,252.5957,48.1988,311.9568,0,U,26857,999,20432,0,-.11E-6,0
PCSAT (NO-44),2001-043C,2026-05-18T21:27:19.479744,14.31943648,.00062201,67.0508,320.0374,263.6347,96.4047,0,U,26931,999,28625,.49714699E-4,.5E-6,0
PROBA-1,2001-049B,2026-05-18T22:18:34.836768,15.07372966,.00538158,97.9604,146.4427,220.4329,139.2893,0,U,26958,999,33921,.51572629E-4,.733E-5,0
SPOT 5,2002-021A,2026-05-18T09:20:19.294080,14.54727772,.01297962,97.9870,178.5690,9.7925,350.5757,0,U,27421,999,25851,.64324874E-4,.259E-5,0
FENGYUN 1D,2002-024B,2026-05-18T06:40:39.760608,14.10220105,.00147727,98.9540,188.7417,330.6247,29.4091,0,U,27431,999,23526,.66647184E-4,.73E-6,0
SAUDISAT 1C (SO-50),2002-058C,2026-05-18T14:51:43.510176,14.82978706,.00756209,64.5520,220.4622,267.8861,91.3584,0,U,27607,999,26007,.85654101E-4,.574E-5,0
CORIOLIS,2003-001A,2026-05-18T11:03:38.487168,14.19936046,.00129293,98.7134,145.7992,301.1870,58.8038,0,U,27640,999,21000,.4508604E-4,.52E-6,0
CUTE-1 (CO-55),2003-031E,2026-05-18T22:54:11.912256,14.24315949,.00082793,98.6744,147.8808,270.5578,89.4652,0,U,27844,999,18751,.98258462E-4,.183E-5,0
CUBESAT XI-IV (CO-57),2003-031J,2026-05-18T07:05:37.507200,14.23603354,.00082798,98.6776,146.9670,294.1039,65.9273,0,U,27848,999,18712,.81891215E-4,.143E-5,0
MOZHAETS 4 (RS22),2003-042A,2026-05-18T23:00:29.068992,14.73410853,.00114655,98.3461,322.4935,8.4617,134.1277,0,U,27939,999,21124,.12136931E-3,.734E-5,0
IRS-P6 (RESOURCESAT-1),2003-046A,2026-05-18T23:27:03.282912,14.36149491,.0065466,98.1925,176.9181,70.3323,46.0413,0,U,28051,999,17633,-.36641011E-4,-.15E-5,0
SAUDISAT 2,2004-025F,2026-05-18T11:49:06.113568,14.56663785,.0025342,98.5510,137.7082,30.6047,329.6623,0,U,28371,999,16142,.43303899E-4,.144E-5,0
COSMOS 2407,2004-028A,2026-05-18T15:31:42.773376,13.76332016,.00387122,82.9589,96.7113,337.1310,201.2040,0,U,28380,999,9581,.25657087E-4,.4E-6,0
COSMOS 2414,2005-002A,2026-05-18T13:07:38.830080,13.87923370,.00413814,82.9503,66.0644,55.0301,305.4737,0,U,28521,999,7970,.47359564E-4,.73E-6,0
INMARSAT 4-F1,2005-009A,2026-05-18T14:58:42.405024,1.00273751,.00027173,5.1304,42.7032,7.7804,228.6243,0,U,28628,999,7737,0,.33E-6,0
HAMSAT (VO-52),2005-017B,2026-05-18T11:50:30.246432,15.09430320,.00206441,97.9918,160.3096,134.5015,225.7904,0,U,28650,999,14228,.17774195E-3,.2786E-4,0
